ONEWEB-0377             
1 49303U 21090AA  23284.56304199  .00000098  00000+0  20966-3 0  9999
2 49303  87.9140 109.4758 0001490  80.2852 279.8449 13.20772882102481
ONEWEB-0378             
1 49304U 21090AB  23283.76864903  .00000076  00000+0  15400-3 0  9998
2 49304  87.9153 109.6326 0001928  93.5446 266.5908 13.20773243100361
ONEWEB-0379             
1 49305U 21090AC  23283.79170173  .00000228  00000+0  57945-3 0  9990
2 49305  87.8954 124.8738 0001807  82.4447 277.6888 13.14504966 98767
ONEWEB-0380             
1 49306U 21090AD  23283.64654247  .00000040  00000+0  67204-4 0  9996
2 49306  87.9211 140.1356 0001577  79.4852 280.6459 13.19724122 97098
ONEWEB-0381             
1 49307U 21090AE  23283.86651802  .00000090  00000+0  18952-3 0  9995
2 49307  87.9201 109.5707 0001543  88.1192 272.0118 13.20771725100426
ONEWEB-0382             
1 49308U 21090AF  23283.77811285  .00000188  00000+0  43056-3 0  9990
2 49308  87.9141 109.6309 0001841 100.8509 259.2832 13.20772608100403
ONEWEB-0383             
1 49309U 21090AG  23283.63313520  .00000305  00000+0  78787-3 0  9995
2 49309  87.8962 124.8894 0001894  87.0021 273.1325 13.14501995 98775
ONEWEB-0384             
1 49310U 21090AH  23283.77391512  .00000101  00000+0  21719-3 0  9996
2 49310  87.9151 109.6313 0001977 106.0955 254.0396 13.20772788100413
